{
  "type": "FeatureCollection",
  "features": [
    {
      "type": "Feature",
      "properties": {
        "norad_id": 65729,
        "name": "DRAGONFLY",
        "group": "stations",
        "lat": -16.21646286087345,
        "lon": 141.65769683864139,
        "alt_km": 360.33270701317997,
        "timestamp": "2025-12-08T23:34:02.757153+00:00",
        "meta_object_name": "DRAGONFLY",
        "meta_object_id": "1998-067XH",
        "meta_epoch": "2025-12-08T12:57:51.221952",
        "meta_mean_motion": 15.70165771,
        "meta_eccentricity": 0.00063996,
        "meta_inclination": 51.625,
        "meta_ra_of_asc_node": 157.2406,
        "meta_arg_of_pericenter": 250.6624,
        "meta_mean_anomaly": 109.3682,
        "meta_ephemeris_type": 0,
        "meta_classification_type": "U",
        "meta_norad_cat_id": 65729,
        "meta_element_set_no": 999,
        "meta_rev_at_epoch": 1250,
        "meta_bstar": 0.0013512848,
        "meta_mean_motion_dot": 0.00170119,
        "meta_mean_motion_ddot": 0,
        "tle_line1": "1 65729U 98067XH  25342.54017618  .00170119  00000+0  13513-2 0  9990",
        "tle_line2": "2 65729  51.6250 157.2406 0006399 250.6624 109.3682 15.70165771 12504"
      },
      "geometry": {
        "type": "Point",
        "coordinates": [
          141.65769683864139,
          -16.21646286087345
        ]
      }
    },
    {
      "type": "Feature",
      "properties": {
        "norad_id": 65731,
        "name": "1998-067XK",
        "group": "stations",
        "lat": 50.965327895263044,
        "lon": -125.95004628126699,
        "alt_km": 369.61583747325494,
        "timestamp": "2025-12-08T23:34:02.757163+00:00",
        "meta_object_name": "1998-067XK",
        "meta_object_id": "1998-067XK",
        "meta_epoch": "2025-12-08T12:29:14.710560",
        "meta_mean_motion": 15.64682619,
        "meta_eccentricity": 0.00053917,
        "meta_inclination": 51.6277,
        "meta_ra_of_asc_node": 158.6227,
        "meta_arg_of_pericenter": 219.7303,
        "meta_mean_anomaly": 140.3298,
        "meta_ephemeris_type": 0,
        "meta_classification_type": "U",
        "meta_norad_cat_id": 65731,
        "meta_element_set_no": 999,
        "meta_rev_at_epoch": 1248,
        "meta_bstar": 0.00099222834,
        "meta_mean_motion_dot": 0.00098864,
        "meta_mean_motion_ddot": 0,
        "tle_line1": "1 65731U 98067XK  25342.52030915  .00098864  00000+0  99223-3 0  9995",
        "tle_line2": "2 65731  51.6277 158.6227 0005391 219.7303 140.3298 15.64682619 12486"
      },
      "geometry": {
        "type": "Point",
        "coordinates": [
          -125.95004628126699,
          50.965327895263044
        ]
      }
    },
    {
      "type": "Feature",
      "properties": {
        "norad_id": 65732,
        "name": "RSP-03",
        "group": "stations",
        "lat": 13.811426973707077,
        "lon": 166.89260848077402,
        "alt_km": 368.85515131600005,
        "timestamp": "2025-12-08T23:34:02.757173+00:00",
        "meta_object_name": "RSP-03",
        "meta_object_id": "1998-067XL",
        "meta_epoch": "2025-12-08T12:46:48.847584",
        "meta_mean_motion": 15.67256125,
        "meta_eccentricity": 0.0006139,
        "meta_inclination": 51.6257,
        "meta_ra_of_asc_node": 157.946,
        "meta_arg_of_pericenter": 223.6679,
        "meta_mean_anomaly": 136.3832,
        "meta_ephemeris_type": 0,
        "meta_classification_type": "U",
        "meta_norad_cat_id": 65732,
        "meta_element_set_no": 999,
        "meta_rev_at_epoch": 1250,
        "meta_bstar": 0.0011731956,
        "meta_mean_motion_dot": 0.00130297,
        "meta_mean_motion_ddot": 0,
        "tle_line1": "1 65732U 98067XL  25342.53250981  .00130297  00000+0  11732-2 0  9999",
        "tle_line2": "2 65732  51.6257 157.9460 0006139 223.6679 136.3832 15.67256125 12501"
      },
      "geometry": {
        "type": "Point",
        "coordinates": [
          166.89260848077402,
          13.811426973707077
        ]
      }
    },
    {
      "type": "Feature",
      "properties": {
        "norad_id": 65733,
        "name": "GHS-01",
        "group": "stations",
        "lat": -27.768858645055857,
        "lon": -0.8468838901518401,
        "alt_km": 350.57175796575666,
        "timestamp": "2025-12-08T23:34:02.757184+00:00",
        "meta_object_name": "GHS-01",
        "meta_object_id": "1998-067XM",
        "meta_epoch": "2025-12-08T02:49:29.282592",
        "meta_mean_motion": 15.7246557,
        "meta_eccentricity": 0.0006917,
        "meta_inclination": 51.6275,
        "meta_ra_of_asc_node": 158.9257,
        "meta_arg_of_pericenter": 247.5151,
        "meta_mean_anomaly": 112.5115,
        "meta_ephemeris_type": 0,
        "meta_classification_type": "U",
        "meta_norad_cat_id": 65733,
        "meta_element_set_no": 999,
        "meta_rev_at_epoch": 1245,
        "meta_bstar": 0.0014759083,
        "meta_mean_motion_dot": 0.00205689,
        "meta_mean_motion_ddot": 0,
        "tle_line1": "1 65733U 98067XM  25342.11770003  .00205689  00000+0  14759-2 0  9996",
        "tle_line2": "2 65733  51.6275 158.9257 0006917 247.5151 112.5115 15.72465570 12457"
      },
      "geometry": {
        "type": "Point",
        "coordinates": [
          -0.8468838901518401,
          -27.768858645055857
        ]
      }
    },
    {
      "type": "Feature",
      "properties": {
        "norad_id": 65941,
        "name": "YOTSUBA-KULOVER",
        "group": "stations",
        "lat": -48.67496174321894,
        "lon": 94.54552291931158,
        "alt_km": 395.48532649018216,
        "timestamp": "2025-12-08T23:34:02.757195+00:00",
        "meta_object_name": "YOTSUBA-KULOVER",
        "meta_object_id": "1998-067XN",
        "meta_epoch": "2025-12-08T13:06:38.018304",
        "meta_mean_motion": 15.58705702,
        "meta_eccentricity": 0.00016718,
        "meta_inclination": 51.6278,
        "meta_ra_of_asc_node": 161.0428,
        "meta_arg_of_pericenter": 208.1564,
        "meta_mean_anomaly": 151.9338,
        "meta_ephemeris_type": 0,
        "meta_classification_type": "U",
        "meta_norad_cat_id": 65941,
        "meta_element_set_no": 999,
        "meta_rev_at_epoch": 920,
        "meta_bstar": 0.00090838679,
        "meta_mean_motion_dot": 0.0007141,
        "meta_mean_motion_ddot": 0,
        "tle_line1": "1 65941U 98067XN  25342.54627336  .00071410  00000+0  90839-3 0  9991",
        "tle_line2": "2 65941  51.6278 161.0428 0001671 208.1564 151.9338 15.58705702  9200"
      },
      "geometry": {
        "type": "Point",
        "coordinates": [
          94.54552291931158,
          -48.67496174321894
        ]
      }
    },
    {
      "type": "Feature",
      "properties": {
        "norad_id": 65942,
        "name": "BOTAN",
        "group": "stations",
        "lat": -24.136906239735726,
        "lon": -0.9412802439958566,
        "alt_km": 383.20518612513933,
        "timestamp": "2025-12-08T23:34:02.757205+00:00",
        "meta_object_name": "BOTAN",
        "meta_object_id": "1998-067XP",
        "meta_epoch": "2025-12-08T11:54:58.851072",
        "meta_mean_motion": 15.61718865,
        "meta_eccentricity": 0.00036467,
        "meta_inclination": 51.6286,
        "meta_ra_of_asc_node": 160.7119,
        "meta_arg_of_pericenter": 203.3745,
        "meta_mean_anomaly": 156.7083,
        "meta_ephemeris_type": 0,
        "meta_classification_type": "U",
        "meta_norad_cat_id": 65942,
        "meta_element_set_no": 999,
        "meta_rev_at_epoch": 920,
        "meta_bstar": 0.0012042708,
        "meta_mean_motion_dot": 0.00106961,
        "meta_mean_motion_ddot": 0,
        "tle_line1": "1 65942U 98067XP  25342.49651448  .00106961  00000+0  12043-2 0  9997",
        "tle_line2": "2 65942  51.6286 160.7119 0003646 203.3745 156.7083 15.61718865  9203"
      },
      "geometry": {
        "type": "Point",
        "coordinates": [
          -0.9412802439958566,
          -24.136906239735726
        ]
      }
    },
    {
      "type": "Feature",
      "properties": {
        "norad_id": 65943,
        "name": "E-KAGAKU-1",
        "group": "stations",
        "lat": -48.60379801224752,
        "lon": 94.84991224583004,
        "alt_km": 396.33484983727885,
        "timestamp": "2025-12-08T23:34:02.757215+00:00",
        "meta_object_name": "E-KAGAKU-1",
        "meta_object_id": "1998-067XQ",
        "meta_epoch": "2025-12-07T18:38:39.521184",
        "meta_mean_motion": 15.58562644,
        "meta_eccentricity": 0.00029586,
        "meta_inclination": 51.6295,
        "meta_ra_of_asc_node": 164.9078,
        "meta_arg_of_pericenter": 173.7443,
        "meta_mean_anomaly": 186.3587,
        "meta_ephemeris_type": 0,
        "meta_classification_type": "U",
        "meta_norad_cat_id": 65943,
        "meta_element_set_no": 999,
        "meta_rev_at_epoch": 908,
        "meta_bstar": 0.0011280115,
        "meta_mean_motion_dot": 0.00088516,
        "meta_mean_motion_ddot": 0,
        "tle_line1": "1 65943U 98067XQ  25341.77684631  .00088516  00000+0  11280-2 0  9995",
        "tle_line2": "2 65943  51.6295 164.9078 0002958 173.7443 186.3587 15.58562644  9086"
      },
      "geometry": {
        "type": "Point",
        "coordinates": [
          94.84991224583004,
          -48.60379801224752
        ]
      }
    }
  ]
}